{"type": "FeatureCollection", "features": [ {"type": "Feature", "properties": {"norad_id": 66615, "name": "STARLINK-35988", "group": "last-30-days", "lat": -1.9959960934781547, "lon": 104.18420154999963, "alt_km": 443.4070205727194, "timestamp": "2025-12-27T16:33:28.971024+00:00", "meta": {"OBJECT_NAME": "STARLINK-35988", "OBJECT_ID": "2025-270AD", "EPOCH": "2025-12-25T16:20:27.897216", "MEAN_MOTION": 15.40700329, "ECCENTRICITY": 0.00016951, "INCLINATION": 43.0013, "RA_OF_ASC_NODE": 117.9088, "ARG_OF_PERICENTER": 260.634, "MEAN_ANOMALY": 99.4325, "EPHEMERIS_TYPE": 0, "CLASSIFICATION_TYPE": "U", "NORAD_CAT_ID": 66615, "ELEMENT_SET_NO": 999, "REV_AT_EPOCH": 618, "BSTAR": 0.0010609961, "MEAN_MOTION_DOT": 0.00044275, "MEAN_MOTION_DDOT": 0}, "tle": {"line1": "1 66615U 25270AD  25359.68087844  .00044275  00000+0  10610-2 0  9990", "line2": "2 66615  43.0013 117.9088 0001695 260.6340  99.4325 15.40700329  6181"}}, "geometry": {"type": "Point", "coordinates": [104.18420154999963, -1.9959960934781547]}}, {"type": "Feature", "properties": {"norad_id": 66616, "name": "STARLINK-35391", "group": "last-30-days", "lat": 42.684121724459054, "lon": -155.6628325416873, "alt_km": 438.13737594246777, "timestamp": "2025-12-27T16:33:28.971036+00:00", "meta": {"OBJECT_NAME": "STARLINK-35391", "OBJECT_ID": "2025-270AE", "EPOCH": "2025-12-27T08:21:50.538240", "MEAN_MOTION": 15.40725234, "ECCENTRICITY": 0.0001586, "INCLINATION": 43.0011, "RA_OF_ASC_NODE": 108.0614, "ARG_OF_PERICENTER": 259.289, "MEAN_ANOMALY": 100.7788, "EPHEMERIS_TYPE": 0, "CLASSIFICATION_TYPE": "U", "NORAD_CAT_ID": 66616, "ELEMENT_SET_NO": 999, "REV_AT_EPOCH": 671, "BSTAR": 0.0011931, "MEAN_MOTION_DOT": 0.00049906, "MEAN_MOTION_DDOT": 0}, "tle": {"line1": "1 66616U 25270AE  25361.34850160  .00049906  00000+0  11931-2 0  9999", "line2": "2 66616  43.0011 108.0614 0001586 259.2890 100.7788 15.40725234  6719"}}, "geometry": {"type": "Point", "coordinates": [-155.6628325416873, 42.684121724459054]}}, {"type": "Feature", "properties": {"norad_id": 66617, "name": "STARLINK-35940", "group": "last-30-days", "lat": -52.92116162429988, "lon": 33.878601870344525, "alt_km": 452.7722310465515, "timestamp": "2025-12-27T16:33:28.971047+00:00", "meta": {"OBJECT_NAME": "STARLINK-35940", "OBJECT_ID": "2025-271A", "EPOCH": "2025-12-27T12:15:19.380672", "MEAN_MOTION": 15.39642326, "ECCENTRICITY": 0.0001233, "INCLINATION": 53.1609, "RA_OF_ASC_NODE": 117.4857, "ARG_OF_PERICENTER": 91.3034, "MEAN_ANOMALY": 268.8112, "EPHEMERIS_TYPE": 0, "CLASSIFICATION_TYPE": "U", "NORAD_CAT_ID": 66617, "ELEMENT_SET_NO": 999, "REV_AT_EPOCH": 648, "BSTAR": 0.001247, "MEAN_MOTION_DOT": 0.00049842, "MEAN_MOTION_DDOT": 0}, "tle": {"line1": "1 66617U 25271A   25361.51064098  .00049842  00000+0  12470-2 0  9995", "line2": "2 66617  53.1609 117.4857 0001233  91.3034 268.8112 15.39642326  6481"}}, "geometry": {"type": "Point", "coordinates": [33.878601870344525, -52.92116162429988]}}, {"type": "Feature", "properties": {"norad_id": 66618, "name": "STARLINK-35970", "group": "last-30-days", "lat": -49.15054902290188, "lon": -3.9182158034254444, "alt_km": 452.536301453576, "timestamp": "2025-12-27T16:33:28.971057+00:00", "meta": {"OBJECT_NAME": "STARLINK-35970", "OBJECT_ID": "2025-271B", "EPOCH": "2025-12-27T12:00:02.000160", "MEAN_MOTION": 15.39608561, "ECCENTRICITY": 8.44e-05, "INCLINATION": 53.1599, "RA_OF_ASC_NODE": 116.8599, "ARG_OF_PERICENTER": 83.4528, "MEAN_ANOMALY": 194.3828, "EPHEMERIS_TYPE": 0, "CLASSIFICATION_TYPE": "U", "NORAD_CAT_ID": 66618, "ELEMENT_SET_NO": 999, "REV_AT_EPOCH": 607, "BSTAR": 0.00021493, "MEAN_MOTION_DOT": 8.204e-05, "MEAN_MOTION_DDOT": 0}, "tle": {"line1": "1 66618U 25271B   25361.50002315  .00008204  00000+0  21493-3 0  9992", "line2": "2 66618  53.1599 116.8599 0000844  83.4528 194.3828 15.39608561  6078"}}, "geometry": {"type": "Point", "coordinates": [-3.9182158034254444, -49.15054902290188]}}, {"type": "Feature", "properties": {"norad_id": 66619, "name": "STARLINK-35951", "group": "last-30-days", "lat": 26.398297245887115, "lon": -85.66790348083046, "alt_km": 442.4063705424269, "timestamp": "2025-12-27T16:33:28.971067+00:00", "meta": {"OBJECT_NAME": "STARLINK-35951", "OBJECT_ID": "2025-271C", "EPOCH": "2025-12-27T11:15:08.184672", "MEAN_MOTION": 15.39623021, "ECCENTRICITY": 0.0002569, "INCLINATION": 53.1605, "RA_OF_ASC_NODE": 117.221, "ARG_OF_PERICENTER": 131.3388, "MEAN_ANOMALY": 228.7839, "EPHEMERIS_TYPE": 0, "CLASSIFICATION_TYPE": "U", "NORAD_CAT_ID": 66619, "ELEMENT_SET_NO": 999, "REV_AT_EPOCH": 648, "BSTAR": 0.0011537, "MEAN_MOTION_DOT": 0.00046035, "MEAN_MOTION_DDOT": 0}, "tle": {"line1": "1 66619U 25271C   25361.46884473  .00046035  00000+0  11537-2 0  9992", "line2": "2 66619  53.1605 117.2210 0002569 131.3388 228.7839 15.39623021  6482"}}, "geometry": {"type": "Point", "coordinates": [-85.66790348083046, 26.398297245887115]}}, {"type": "Feature", "properties": {"norad_id": 66620, "name": "STARLINK-35936", "group": "last-30-days", "lat": 52.88545097454634, "lon": -145.95627900128014, "alt_km": 439.1203316498477, "timestamp": "2025-12-27T16:33:28.971077+00:00", "meta": {"OBJECT_NAME": "STARLINK-35936", "OBJECT_ID": "2025-271D", "EPOCH": "2025-12-27T11:28:30.844128", "MEAN_MOTION": 15.3966657, "ECCENTRICITY": 0.0001314, "INCLINATION": 53.1584, "RA_OF_ASC_NODE": 117.2799, "ARG_OF_PERICENTER": 67.8464, "MEAN_ANOMALY": 292.268, "EPHEMERIS_TYPE": 0, "CLASSIFICATION_TYPE": "U", "NORAD_CAT_ID": 66620, "ELEMENT_SET_NO": 999, "REV_AT_EPOCH": 648, "BSTAR": 0.001277, "MEAN_MOTION_DOT": 0.00051102, "MEAN_MOTION_DDOT": 0}, "tle": {"line1": "1 66620U 25271D   25361.47813477  .00051102  00000+0  12770-2 0  9992", "line2": "2 66620  53.1584 117.2799 0001314  67.8464 292.2680 15.39666570  6483"}}, "geometry": {"type": "Point", "coordinates": [-145.95627900128014, 52.88545097454634]}}, {"type": "Feature", "properties": {"norad_id": 66621, "name": "STARLINK-35847", "group": "last-30-days", "lat": -52.62363377523936, "lon": 36.96760912363757, "alt_km": 452.9269346640258, "timestamp": "2025-12-27T16:33:28.971088+00:00", "meta": {"OBJECT_NAME": "STARLINK-35847", "OBJECT_ID": "2025-271E", "EPOCH": "2025-12-27T12:00:02.000160", "MEAN_MOTION": 15.39608104, "ECCENTRICITY": 0.0001449, "INCLINATION": 53.1595, "RA_OF_ASC_NODE": 116.808, "ARG_OF_PERICENTER": 66.2094, "MEAN_ANOMALY": 237.3881, "EPHEMERIS_TYPE": 0, "CLASSIFICATION_TYPE": "U", "NORAD_CAT_ID": 66621, "ELEMENT_SET_NO": 999, "REV_AT_EPOCH": 607, "BSTAR": 0.00025769, "MEAN_MOTION_DOT": 9.917e-05, "MEAN_MOTION_DDOT": 0}, "tle": {"line1": "1 66621U 25271E   25361.50002315  .00009917  00000+0  25769-3 0  9998", "line2": "2 66621  53.1595 116.8080 0001449  66.2094 237.3881 15.39608104  6072"}}, "geometry": {"type": "Point", "coordinates": [36.96760912363757, -52.62363377523936]}}, {"type": "Feature", "properties": {"norad_id": 66622, "name": "STARLINK-35950", "group": "last-30-days", "lat": 13.783425432444172, "lon": 127.03347966845023, "alt_km": 445.8671853298365, "timestamp": "2025-12-27T16:33:28.971099+00:00", "meta": {"OBJECT_NAME": "STARLINK-35950", "OBJECT_ID": "2025-271F", "EPOCH": "2025-12-27T11:48:34.225056", "MEAN_MOTION": 15.39690645, "ECCENTRICITY": 7.88e-05, "INCLINATION": 53.1595, "RA_OF_ASC_NODE": 117.3679, "ARG_OF_PERICENTER": 101.9624, "MEAN_ANOMALY": 258.147, "EPHEMERIS_TYPE": 0, "CLASSIFICATION_TYPE": "U", "NORAD_CAT_ID": 66622, "ELEMENT_SET_NO": 999, "REV_AT_EPOCH": 648, "BSTAR": 0.0010548, "MEAN_MOTION_DOT": 0.00042122, "MEAN_MOTION_DDOT": 0}, "tle": {"line1": "1 66622U 25271F   25361.49206279  .00042122  00000+0  10548-2 0  9995", "line2": "2 66622  53.1595 117.3679 0000788 101.9624 258.1470 15.39690645  6485"}}, "geometry": {"type": "Point", "coordinates": [127.03347966845023, 13.783425432444172]}}, {"type": "Feature", "properties": {"norad_id": 66623, "name": "STARLINK-35920", "group": "last-30-days", "lat": -26.698860005693867, "lon": 94.38563629724433, "alt_km": 451.8993679928135, "timestamp": "2025-12-27T16:33:28.971109+00:00", "meta": {"OBJECT_NAME": "STARLINK-35920", "OBJECT_ID": "2025-271G", "EPOCH": "2025-12-27T12:01:56.510400", "MEAN_MOTION": 15.39677909, "ECCENTRICITY": 0.0001898, "INCLINATION": 53.1604, "RA_OF_ASC_NODE": 117.4252, "ARG_OF_PERICENTER": 143.5961, "MEAN_ANOMALY": 216.5173, "EPHEMERIS_TYPE": 0, "CLASSIFICATION_TYPE": "U", "NORAD_CAT_ID": 66623, "ELEMENT_SET_NO": 999, "REV_AT_EPOCH": 648, "BSTAR": 0.0015117, "MEAN_MOTION_DOT": 0.00060668, "MEAN_MOTION_DDOT": 0}, "tle": {"line1": "1 66623U 25271G   25361.50134850  .00060668  00000+0  15117-2 0  9995", "line2": "2 66623  53.1604 117.4252 0001898 143.5961 216.5173 15.39677909  6480"}}, "geometry": {"type": "Point", "coordinates": [94.38563629724433, -26.698860005693867]}}, {"type": "Feature", "properties": {"norad_id": 66624, "name": "STARLINK-35927", "group": "last-30-days", "lat": 6.367810654480939, "lon": -68.67173215313717, "alt_km": 447.59398635329035, "timestamp": "2025-12-27T16:33:28.971119+00:00", "meta": {"OBJECT_NAME": "STARLINK-35927", "OBJECT_ID": "2025-271H", "EPOCH": "2025-12-27T08:01:29.859168", "MEAN_MOTION": 15.39652071, "ECCENTRICITY": 7.98e-05, "INCLINATION": 53.1605, "RA_OF_ASC_NODE": 117.8035, "ARG_OF_PERICENTER": 348.0144, "MEAN_ANOMALY": 12.0842, "EPHEMERIS_TYPE": 0, "CLASSIFICATION_TYPE": "U", "NORAD_CAT_ID": 66624, "ELEMENT_SET_NO": 999, "REV_AT_EPOCH": 646, "BSTAR": 0.0014434, "MEAN_MOTION_DOT": 0.00057834, "MEAN_MOTION_DDOT": 0}, "tle": {"line1": "1 66624U 25271H   25361.33437337  .00057834  00000+0  14434-2 0  9995", "line2": "2 66624  53.1605 117.8035 0000798 348.0144  12.0842 15.39652071  6461"}}, "geometry": {"type": "Point", "coordinates": [-68.67173215313717, 6.367810654480939]}}]}